start=new Date('2022-05-13T00:00:00.000Z').valueOf();
sats=[{"MEAN_ANOMALY":"39.2484","TIME_SYSTEM":"UTC","PERIOD":"95.439","ECCENTRICITY":"0.00015120","CLASSIFICATION_TYPE":"U","BSTAR":"0.00222470000000","TLE_LINE1":"1 51857U 22022F   22132.91667824  .00035280  00000-0  22247-2 0  9994","OBJECT_NAME":"STARLINK-3571","OBJECT_TYPE":"PAYLOAD","GP_ID":"203394821","SEMIMAJOR_AXIS":"6917.930","ELEMENT_SET_NO":"999","RA_OF_ASC_NODE":"169.4773","APOAPSIS":"540.841","NORAD_CAT_ID":"51857","SITE":"AFETR","MEAN_MOTION":"15.08823770","ARG_OF_PERICENTER":"65.5343","EPHEMERIS_TYPE":"0","MEAN_ELEMENT_THEORY":"SGP4","RCS_SIZE":"LARGE","OBJECT_ID":"2022-022F","INCLINATION":"53.2132","COUNTRY_CODE":"US","MEAN_MOTION_DDOT":"0.0000000000000","MEAN_MOTION_DOT":"0.00035280","CENTER_NAME":"EARTH","PERIAPSIS":"538.749","DECAY_DATE":null,"EPOCH":"2022-05-12T22:00:00.999936","REV_AT_EPOCH":"130","TLE_LINE2":"2 51857  53.2132 169.4773 0001512  65.5343  39.2484 15.08823770  1301","LAUNCH_DATE":"2022-03-03","FILE":"3442534","REF_FRAME":"TEME"},{"PERIAPSIS":"538.611","DECAY_DATE":null,"MEAN_MOTION_DDOT":"0.0000000000000","MEAN_MOTION_DOT":"0.00031407","CENTER_NAME":"EARTH","MEAN_ELEMENT_THEORY":"SGP4","RCS_SIZE":"LARGE","OBJECT_ID":"2022-022G","INCLINATION":"53.2120","COUNTRY_CODE":"US","MEAN_MOTION":"15.08835498","ARG_OF_PERICENTER":"54.1493","EPHEMERIS_TYPE":"0","FILE":"3442534","REF_FRAME":"TEME","LAUNCH_DATE":"2022-03-03","TLE_LINE2":"2 51858  53.2120 169.4771 0001659  54.1493  30.6899 15.08835498  1304","EPOCH":"2022-05-12T22:00:00.999936","REV_AT_EPOCH":"130","TLE_LINE1":"1 51858U 22022G   22132.91667824  .00031407  00000-0  19829-2 0  9994","BSTAR":"0.00198290000000","PERIOD":"95.438","ECCENTRICITY":"0.00016590","CLASSIFICATION_TYPE":"U","MEAN_ANOMALY":"30.6899","TIME_SYSTEM":"UTC","APOAPSIS":"540.907","NORAD_CAT_ID":"51858","SITE":"AFETR","ELEMENT_SET_NO":"999","RA_OF_ASC_NODE":"169.4771","GP_ID":"203394654","SEMIMAJOR_AXIS":"6917.894","OBJECT_NAME":"STARLINK-3563","OBJECT_TYPE":"PAYLOAD"},{"TLE_LINE2":"2 51859  53.2175 161.1208 0001555  44.8905 252.9718 15.34600335  1306","EPOCH":"2022-05-12T22:00:00.999936","REV_AT_EPOCH":"130","FILE":"3442534","REF_FRAME":"TEME","LAUNCH_DATE":"2022-03-03","MEAN_ELEMENT_THEORY":"SGP4","RCS_SIZE":"LARGE","OBJECT_ID":"2022-022H","INCLINATION":"53.2175","COUNTRY_CODE":"US","MEAN_MOTION":"15.34600335","ARG_OF_PERICENTER":"44.8905","EPHEMERIS_TYPE":"0","PERIAPSIS":"461.046","DECAY_DATE":null,"MEAN_MOTION_DDOT":"0.0000000000000","CENTER_NAME":"EARTH","MEAN_MOTION_DOT":"-0.00714201","GP_ID":"203394569","SEMIMAJOR_AXIS":"6840.245","OBJECT_TYPE":"PAYLOAD","OBJECT_NAME":"STARLINK-3560","APOAPSIS":"463.174","NORAD_CAT_ID":"51859","SITE":"AFETR","ELEMENT_SET_NO":"999","RA_OF_ASC_NODE":"161.1208","PERIOD":"93.836","CLASSIFICATION_TYPE":"U","ECCENTRICITY":"0.00015550","MEAN_ANOMALY":"252.9718","TIME_SYSTEM":"UTC","TLE_LINE1":"1 51859U 22022H   22132.91667824 -.00714201  00000-0 -22736-1 0  9997","BSTAR":"-0.02273600000000"},{"TLE_LINE2":"2 51860  53.2174 161.1240 0001345  58.1192  65.8646 15.36722333  1302","REV_AT_EPOCH":"130","EPOCH":"2022-05-12T22:00:00.999936","REF_FRAME":"TEME","FILE":"3442534","LAUNCH_DATE":"2022-03-03","OBJECT_ID":"2022-022J","INCLINATION":"53.2174","COUNTRY_CODE":"US","MEAN_ELEMENT_THEORY":"SGP4","RCS_SIZE":"LARGE","ARG_OF_PERICENTER":"58.1192","EPHEMERIS_TYPE":"0","MEAN_MOTION":"15.36722333","DECAY_DATE":null,"PERIAPSIS":"454.892","CENTER_NAME":"EARTH","MEAN_MOTION_DOT":"-0.00716495","MEAN_MOTION_DDOT":"0.0000000000000","GP_ID":"203395077","SEMIMAJOR_AXIS":"6833.946","OBJECT_NAME":"STARLINK-3559","OBJECT_TYPE":"PAYLOAD","SITE":"AFETR","APOAPSIS":"456.731","NORAD_CAT_ID":"51860","ELEMENT_SET_NO":"999","RA_OF_ASC_NODE":"161.1240","PERIOD":"93.706","CLASSIFICATION_TYPE":"U","ECCENTRICITY":"0.00013450","MEAN_ANOMALY":"65.8646","TIME_SYSTEM":"UTC","TLE_LINE1":"1 51860U 22022J   22132.91667824 -.00716495  00000-0 -21307-1 0  9999","BSTAR":"-0.02130700000000"},{"BSTAR":"-0.02255600000000","TLE_LINE1":"1 51861U 22022K   22132.91667824 -.00714379  00000-0 -22556-1 0  9996","MEAN_ANOMALY":"285.1413","TIME_SYSTEM":"UTC","ECCENTRICITY":"0.00016700","CLASSIFICATION_TYPE":"U","PERIOD":"93.820","RA_OF_ASC_NODE":"161.1212","ELEMENT_SET_NO":"999","NORAD_CAT_ID":"51861","APOAPSIS":"462.493","SITE":"AFETR","OBJECT_NAME":"STARLINK-3562","OBJECT_TYPE":"PAYLOAD","GP_ID":"203394484","SEMIMAJOR_AXIS":"6839.485","MEAN_MOTION_DDOT":"0.0000000000000","MEAN_MOTION_DOT":"-0.00714379","CENTER_NAME":"EARTH","PERIAPSIS":"460.208","DECAY_DATE":null,"MEAN_MOTION":"15.34855967","EPHEMERIS_TYPE":"0","ARG_OF_PERICENTER":"37.1455","RCS_SIZE":"LARGE","MEAN_ELEMENT_THEORY":"SGP4","COUNTRY_CODE":"US","OBJECT_ID":"2022-022K","INCLINATION":"53.2175","LAUNCH_DATE":"2022-03-03","FILE":"3442534","REF_FRAME":"TEME","EPOCH":"2022-05-12T22:00:00.999936","REV_AT_EPOCH":"130","TLE_LINE2":"2 51861  53.2175 161.1212 0001670  37.1455 285.1413 15.34855967  1300"},{"EPHEMERIS_TYPE":"0","ARG_OF_PERICENTER":"37.8443","MEAN_MOTION":"15.36849960","COUNTRY_CODE":"US","OBJECT_ID":"2022-022L","INCLINATION":"53.2174","RCS_SIZE":"LARGE","MEAN_ELEMENT_THEORY":"SGP4","CENTER_NAME":"EARTH","MEAN_MOTION_DOT":"-0.00716180","MEAN_MOTION_DDOT":"0.0000000000000","DECAY_DATE":null,"PERIAPSIS":"454.243","REV_AT_EPOCH":"130","EPOCH":"2022-05-12T22:00:00.999936","TLE_LINE2":"2 51862  53.2174 161.1229 0001742  37.8443  97.7338 15.36849960  1303","LAUNCH_DATE":"2022-03-03","REF_FRAME":"TEME","FILE":"3442534","MEAN_ANOMALY":"97.7338","TIME_SYSTEM":"UTC","ECCENTRICITY":"0.00017420","CLASSIFICATION_TYPE":"U","PERIOD":"93.698","BSTAR":"-0.02120700000000","TLE_LINE1":"1 51862U 22022L   22132.91667824 -.00716180  00000-0 -21207-1 0  9991","OBJECT_NAME":"STARLINK-3508","OBJECT_TYPE":"PAYLOAD","SEMIMAJOR_AXIS":"6833.568","GP_ID":"203394992","RA_OF_ASC_NODE":"161.1229","ELEMENT_SET_NO":"999","SITE":"AFETR","NORAD_CAT_ID":"51862","APOAPSIS":"456.624"},{"TLE_LINE1":"1 51863U 22022M   22132.91667824 -.00714563  00000-0 -22378-1 0  9995","BSTAR":"-0.02237800000000","CLASSIFICATION_TYPE":"U","ECCENTRICITY":"0.00016410","PERIOD":"93.804","TIME_SYSTEM":"UTC","MEAN_ANOMALY":"311.2117","SITE":"AFETR","NORAD_CAT_ID":"51863","APOAPSIS":"461.713","RA_OF_ASC_NODE":"161.1212","ELEMENT_SET_NO":"999","SEMIMAJOR_AXIS":"6838.726","GP_ID":"203394907","OBJECT_TYPE":"PAYLOAD","OBJECT_NAME":"STARLINK-3555","DECAY_DATE":null,"PERIAPSIS":"459.469","MEAN_MOTION_DOT":"-0.00714563","CENTER_NAME":"EARTH","MEAN_MOTION_DDOT":"0.0000000000000","COUNTRY_CODE":"US","OBJECT_ID":"2022-022M","INCLINATION":"53.2174","RCS_SIZE":"LARGE","MEAN_ELEMENT_THEORY":"SGP4","EPHEMERIS_TYPE":"0","ARG_OF_PERICENTER":"35.3460","MEAN_MOTION":"15.35111620","REF_FRAME":"TEME","FILE":"3442534","LAUNCH_DATE":"2022-03-03","TLE_LINE2":"2 51863  53.2174 161.1212 0001641  35.3460 311.2117 15.35111620  1309","REV_AT_EPOCH":"130","EPOCH":"2022-05-12T22:00:00.999936"},{"PERIAPSIS":"460.616","DECAY_DATE":null,"MEAN_MOTION_DDOT":"0.0000000000000","MEAN_MOTION_DOT":"-0.00714326","CENTER_NAME":"EARTH","MEAN_ELEMENT_THEORY":"SGP4","RCS_SIZE":"LARGE","OBJECT_ID":"2022-022N","INCLINATION":"53.2175","COUNTRY_CODE":"US","MEAN_MOTION":"15.34728162","ARG_OF_PERICENTER":"40.3648","EPHEMERIS_TYPE":"0","FILE":"3442534","REF_FRAME":"TEME","LAUNCH_DATE":"2022-03-03","TLE_LINE2":"2 51864  53.2175 161.1210 0001629  40.3648 269.7289 15.34728162  1300","EPOCH":"2022-05-12T22:00:00.999936","REV_AT_EPOCH":"130","TLE_LINE1":"1 51864U 22022N   22132.91667824 -.00714326  00000-0 -22647-1 0  9992","BSTAR":"-0.02264700000000","PERIOD":"93.828","ECCENTRICITY":"0.00016290","CLASSIFICATION_TYPE":"U","MEAN_ANOMALY":"269.7289","TIME_SYSTEM":"UTC","APOAPSIS":"462.844","NORAD_CAT_ID":"51864","SITE":"AFETR","ELEMENT_SET_NO":"999","RA_OF_ASC_NODE":"161.1210","SEMIMAJOR_AXIS":"6839.865","GP_ID":"203394739","OBJECT_TYPE":"PAYLOAD","OBJECT_NAME":"STARLINK-3548"},{"PERIAPSIS":"458.835","DECAY_DATE":null,"MEAN_MOTION_DDOT":"0.0000000000000","CENTER_NAME":"EARTH","MEAN_MOTION_DOT":"-0.00714814","RCS_SIZE":"LARGE","MEAN_ELEMENT_THEORY":"SGP4","COUNTRY_CODE":"US","INCLINATION":"53.2174","OBJECT_ID":"2022-022P","MEAN_MOTION":"15.35367363","EPHEMERIS_TYPE":"0","ARG_OF_PERICENTER":"42.1968","FILE":"3442534","REF_FRAME":"TEME","LAUNCH_DATE":"2022-03-03","TLE_LINE2":"2 51865  53.2174 161.1209 0001458  42.1968 328.4782 15.35367363  1307","EPOCH":"2022-05-12T22:00:00.999936","REV_AT_EPOCH":"130","TLE_LINE1":"1 51865U 22022P   22132.91667824 -.00714814  00000-0 -22204-1 0  9994","BSTAR":"-0.02220400000000","ECCENTRICITY":"0.00014580","CLASSIFICATION_TYPE":"U","PERIOD":"93.789","TIME_SYSTEM":"UTC","MEAN_ANOMALY":"328.4782","NORAD_CAT_ID":"51865","APOAPSIS":"460.829","SITE":"AFETR","RA_OF_ASC_NODE":"161.1209","ELEMENT_SET_NO":"999","SEMIMAJOR_AXIS":"6837.967","GP_ID":"203394822","OBJECT_TYPE":"PAYLOAD","OBJECT_NAME":"STARLINK-3503"},{"OBJECT_NAME":"STARLINK-3553","OBJECT_TYPE":"PAYLOAD","GP_ID":"203394655","SEMIMAJOR_AXIS":"6839.106","RA_OF_ASC_NODE":"161.1211","ELEMENT_SET_NO":"999","NORAD_CAT_ID":"51866","APOAPSIS":"462.074","SITE":"AFETR","TIME_SYSTEM":"UTC","MEAN_ANOMALY":"296.7488","ECCENTRICITY":"0.00016140","CLASSIFICATION_TYPE":"U","PERIOD":"93.812","BSTAR":"-0.02246700000000","TLE_LINE1":"1 51866U 22022Q   22132.91667824 -.00714469  00000-0 -22467-1 0  9992","EPOCH":"2022-05-12T22:00:00.999936","REV_AT_EPOCH":"130","TLE_LINE2":"2 51866  53.2175 161.1211 0001614  37.6926 296.7488 15.34983800  1308","LAUNCH_DATE":"2022-03-03","FILE":"3442534","REF_FRAME":"TEME","MEAN_MOTION":"15.34983800","EPHEMERIS_TYPE":"0","ARG_OF_PERICENTER":"37.6926","RCS_SIZE":"LARGE","MEAN_ELEMENT_THEORY":"SGP4","COUNTRY_CODE":"US","INCLINATION":"53.2175","OBJECT_ID":"2022-022Q","MEAN_MOTION_DDOT":"0.0000000000000","MEAN_MOTION_DOT":"-0.00714469","CENTER_NAME":"EARTH","PERIAPSIS":"459.867","DECAY_DATE":null}];
